HST                     
1 20580U 90037B   26133.91105606  .00004775  00000+0  15035-3 0  9996
2 20580  28.4754 314.7628 0002132 112.2486 247.8336 15.30373445783310
POLAR                   
1 23802U 96013A   26134.14705332  .00000068  00000+0  00000+0 0  9997
2 23802  79.8180 227.4479 6436602 210.2500  87.7832  1.29846026144419
SWAS                    
1 25560U 98071A   26133.55719571  .00001906  00000+0  12559-3 0  9998
2 25560  69.8957 316.8071 0008007 293.2460  66.7861 15.09367121492049
CXO                     
1 25867U 99040B   26134.99575802  .00000704  00000+0  00000+0 0  9990
2 25867  55.6591 117.5844 7896929 310.4386 359.9851  0.37808652 17193
XMM-NEWTON              
1 25989U 99066A   26135.43881895  .00000085  00000+0  00000+0 0  9997
2 25989  64.6604 283.4024 4685413  65.5061   0.1256  0.50124669 22830
TERRA                   
1 25994U 99068A   26134.25619073  .00000250  00000+0  59900-4 0  9993
2 25994  97.9479 185.1436 0002029  15.3708  50.1041 14.61074712404654
CLUSTER II-FM7 (SAMBA)  
1 26410U 00041A   26134.67063255  .00003081  00000+0  00000+0 0  9998
2 26410 149.8135  45.0185 9015871 261.7544   0.5684  0.44846614 20168
CLUSTER II-FM8 (TANGO)  
1 26464U 00045B   26134.64554359  .00003165  00000+0  00000+0 0  9991
2 26464 150.0698  45.9942 9019761 262.5889   0.5477  0.44404932 20150
ODIN                    
1 26702U 01007A   26134.06997029  .00092317  00000+0  88727-3 0  9999
2 26702  97.3930 173.0776 0002420 194.3726 165.7466 15.66288601384048
TIMED                   
1 26998U 01055B   26133.88561641  .00000746  00000+0  71460-4 0  9997
2 26998  74.0670 304.0806 0000914 182.9857 177.1323 14.95206653325695
CORIOLIS                
1 27640U 03001A   26134.30340577  .00000077  00000+0  56827-4 0  9993
2 27640  98.7136 141.7049 0013099 314.1197  45.8901 14.19935244209414
SORCE                   
1 27651U 03004A   26134.26621265  .00001753  00000+0  13688-3 0  9998
2 27651  39.9906  95.1780 0017068 172.9776 187.1260 15.03515591266790
MOST                    
1 27843U 03031D   26134.27998819  .00000051  00000+0  43355-4 0  9999
2 27843  98.7055 142.4785 0009719 357.5020   2.6107 14.21315218185894
SCISAT 1                
1 27858U 03036A   26134.32532978  .00000335  00000+0  47490-4 0  9995
2 27858  73.9303 238.6175 0008343 305.0632  54.9761 14.81410456226439
SWIFT                   
1 28485U 04047A   26133.22822516  .00032093  00000+0  30284-3 0  9991
2 28485  20.5523  93.8481 0002790 191.6437 168.3944 15.65021198181371
HINODE (SOLAR-B)        
1 29479U 06041A   26134.05072751  .00000417  00000+0  80095-4 0  9992
2 29479  98.0563 150.7058 0018379  40.4556 319.8012 14.68571427 49868
SHIJIAN-6 02A (SJ-6 02A)
1 29505U 06046A   26134.24729524  .00003994  00000+0  20838-3 0  9996
2 29505  97.6395 175.0655 0001607 236.0671 124.0409 15.16534631 67121
SHIJIAN-6 02B (SJ-6 02B)
1 29506U 06046B   26134.35517403  .00001088  00000+0  89255-4 0  9991
2 29506  97.7163 163.6240 0011722 169.2690 190.8787 15.01276382 65663
FGRST (GLAST)           
1 33053U 08029A   26133.91569161  .00001936  00000+0  64717-4 0  9993
2 33053  25.5815  82.4058 0007885 282.2573  77.7082 15.23747422990608
SDO                     
1 36395U 10005A   26133.40398793 -.00000047  00000+0  00000+0 0  9990
2 36395  34.5804  86.8680 0001103  44.9806 142.9287  1.00271849 59711
CRYOSAT 2               
1 36508U 10013A   26134.31062672  .00000050  00000+0  11641-4 0  9991
2 36508  92.0316 269.0745 0002602  86.7728 273.3776 14.51898303853166
X-SAT                   
1 37389U 11015C   26134.24600244  .00000128  00000+0  72061-4 0  9996
2 37389  98.3492 112.8909 0015368  82.8192 277.4735 14.25196078782847
GCOM-W1 (SHIZUKU)       
1 38337U 12025A   26134.33507782  .00000275  00000+0  71105-4 0  9996
2 38337  98.2010  75.4074 0001630  99.4522  62.1049 14.57091008744107
NUSTAR                  
1 38358U 12031A   26134.33334491 -.00000108  00000+0 -59695-4 0  9998
2 38358   6.0275 288.0277 0008972 320.0753  83.5756 15.08470624  1304
NEOSSAT                 
1 39089U 13009D   26134.06300092  .00000086  00000+0  44355-4 0  9996
2 39089  98.4173 314.9086 0010813 354.8486   5.2587 14.35814215691844
BRITE-AUSTRIA           
1 39091U 13009F   26133.45170535  .00000103  00000+0  49498-4 0  9991
2 39091  98.3988 313.7488 0009898 350.9654   9.1353 14.36527680692065
IRIS                    
1 39197U 13033A   26134.15682453  .00000712  00000+0  87802-4 0  9997
2 39197  97.9351 333.5388 0025850  71.4787 288.9234 14.85812775695321
HISAKI (SPRINT-A)       
1 39253U 13049A   26134.02963721  .00000113  00000+0  66914-4 0  9999
2 39253  29.7206  33.6662 0136641 100.0296 261.5723 13.55540198626781
CASSIOPE                
1 39265U 13055A   26134.27714187  .00024075 -61794-6  27412-3 0  9993
2 39265  80.9125 107.8068 0301012 176.0717 184.2991 15.22630740662501
STSAT-3                 
1 39422U 13066G   26134.28436311  .00000945  00000+0  75601-4 0  9990
2 39422  97.6155 104.7395 0010278 138.7233 221.4770 15.02528785679119
SWARM B                 
1 39451U 13067A   26134.28494991  .00002131  00000+0  75951-4 0  9998
2 39451  87.7454 352.6160 0002782  99.7225 260.4338 15.28343554678068
SWARM A                 
1 39452U 13067B   26134.27291877  .00007879  00000+0  13875-3 0  9996
2 39452  87.3330  68.8285 0003468  86.0362 274.1295 15.50236323700997
SWARM C                 
1 39453U 13067C   26134.27283867  .00007680  00000+0  13523-3 0  9997
2 39453  87.3331  67.4098 0003461  85.7481 274.4175 15.50237604700956
BRITE-CA1 (TORONTO)     
1 40020U 14033L   26134.26898065  .00000447  00000+0  74869-4 0  9999
2 40020  97.9690 263.8325 0079194  26.4750 334.0470 14.72628840637224
OCO 2                   
1 40059U 14035A   26134.30102302  .00000246  00000+0  64622-4 0  9993
2 40059  98.2005  76.1143 0001360  88.5833 271.5522 14.57081571631116
BRITE-PL2 (HEWELIUSZ)   
1 40119U 14049B   26134.29448081  .00000811  00000+0  80614-4 0  9997
2 40119  97.9059 246.0438 0013216 217.6234 142.4062 14.94460002636386
MMS 1                   
1 40482U 15011A   26134.33334491  .00000077  00000+0  00000+0 0  9994
2 40482  71.7724 349.2335 8346274 166.7905  84.6911  0.28369417  1342
MMS 2                   
1 40483U 15011B   26134.33334491  .00000077  00000+0  00000+0 0  9995
2 40483  71.7726 349.2357 8347150 166.7969  84.6732  0.28369219  1344
MMS 3                   
1 40484U 15011C   26134.33334491  .00000077  00000+0  00000+0 0  9996
2 40484  71.7755 349.2402 8346361 166.7913  84.6729  0.28369165  1346
MMS 4                   
1 40485U 15011D   26134.33334491  .00000076  00000+0  00000+0 0  9996
2 40485  71.7722 349.2358 8345938 166.7990  84.6609  0.28369156  1342
ASTROSAT                
1 40930U 15052A   26130.01374999  .00001330  00000+0  80390-4 0  9993
2 40930   5.9973  70.0971 0008319 213.0571 146.9037 14.82440518574154
DAMPE                   
1 41173U 15078A   26134.30669238  .00000601  00000+0  22844-4 0  9990
2 41173  97.4568 139.6097 0011462 188.0572 172.0487 15.30695710579363
PISAT                   
1 41784U 16059B   26134.22175652  .00000625  00000+0  11424-3 0  9998
2 41784  97.8183 136.1360 0027932 316.3878  43.5120 14.68921371514750
HXMT (HUIYAN)           
1 42758U 17034A   26134.12298752  .00003306  00000+0  16841-3 0  9997
2 42758  43.0153  12.6723 0032844 288.2978  71.4298 15.18154780492488
FLYING LAPTOP           
1 42831U 17042G   26134.32066929  .00001925  00000+0  15518-3 0  9994
2 42831  97.4533 291.1934 0017711 237.5371 122.4142 15.00913406481373
ZHANGHENG 1-01 (CSES-1) 
1 43194U 18015C   26134.31996189  .00004664  00000+0  21345-3 0  9995
2 43194  97.6840 299.3103 0016829  26.0716 334.1362 15.20908491459494
SALSAT                  
1 46495U 20068K   26133.99559253  .00005344  00000+0  19079-3 0  9990
2 46495  97.8855 134.9940 0011457  67.8052 292.4401 15.29276426310132
IXPE                    
1 49954U 21121A   26134.33334491  .00009139  00000+0  49170-3 0  9999
2 49954   0.2286 213.7890 0006855 288.7153 154.7480 15.09928383  5146
